*******************************************************************************
Ephemeris / WWW_USER Tue Mar 11 05:30:27 2025 Pasadena, USA      / Horizons    
*******************************************************************************
Target body name: (2018 RY7)                      {source: JPL#20}
Center body name: Earth (399)                     {source: DE441}
Center-site name: Gemini South Obs., Cerro Pachon
*******************************************************************************
Start time      : A.D. 2018-Sep-07 22:39:00.0000 UT      
Stop  time      : A.D. 2018-Sep-08 10:41:00.0000 UT      
Step-size       : 1 minutes
*******************************************************************************
Target pole/equ : undefined
Target radii    : undefined                                                    
Center geodetic : 289.2634, -30.2406227, 2.71233  {E-lon(deg),Lat(deg),Alt(km)}
Center cylindric: 289.2634,5517.21435,-3194.81213 {E-lon(deg),Dxy(km),Dz(km)}
Center pole/equ : ITRF93                          {East-longitude positive}
Center radii    : 6378.137, 6378.137, 6356.752 km {Equator_a, b, pole_c}       
Target primary  : Sun
Vis. interferer : MOON (R_eq= 1737.400) km        {source: DE441}
Rel. light bend : Sun                             {source: DE441}
Rel. lght bnd GM: 1.3271E+11 km^3/s^2                                          
Small-body perts: Yes                             {source: SB441-N16}
Atmos refraction: NO (AIRLESS)
RA format       : HMS
Time format     : CAL 
Calendar mode   : Mixed Julian/Gregorian
RTS-only print  : NO       
EOP file        : eop.250310.p250606                                           
EOP coverage    : DATA-BASED 1962-JAN-20 TO 2025-MAR-10. PREDICTS-> 2025-JUN-05
Units conversion: 1 au= 149597870.700 km, c= 299792.458 km/s, 1 day= 86400.0 s 
Table cut-offs 1: Elevation (-90.0deg=NO ),Airmass (>38.000=NO), Daylight (YES)
Table cut-offs 2: Solar elongation (  0.0,180.0=NO ),Local Hour Angle( 0.0=NO )
Table cut-offs 3: RA/DEC angular rate (     0.0=NO )                           
*******************************************************************************
Initial IAU76/J2000 heliocentric ecliptic osculating elements (au, days, deg.):
  EPOCH=  2458422.5 ! 2018-Oct-31.00 (TDB)         Residual RMS= .22459        
   EC= .1470549687381346   QR= .8667733479166969   TP= 2458516.8896767548      
   OM= 2.838668085760325   W=  136.9006026425241   IN= 13.35135890147074       
  Equivalent ICRF heliocentric cartesian coordinates (au, au/d):
   X= 8.791791513870114E-01  Y= 4.508422091141234E-01  Z= 3.244113040133835E-01
  VX=-1.085418916943652E-02 VY= 1.006005810562689E-02 VZ= 7.673980932675997E-03
Asteroid physical parameters (km, seconds, rotational period in hours):        
   GM= n.a.                RAD= n.a.               ROTPER= n.a.                
   H= 24.4                 G= .150                 B-V= n.a.                   
                           ALBEDO= n.a.            STYP= n.a.                  
*******************************************************************************
 Date__(UT)__HR:MN     R.A._________(ICRF)_________DEC
******************************************************
$$SOE
 2018-Sep-08 00:42     01 41 01.908412 -13 49 26.27990
 2018-Sep-08 00:43     01 41 01.801509 -13 49 25.07174
 2018-Sep-08 00:44     01 41 01.694540 -13 49 23.86356
 2018-Sep-08 00:45     01 41 01.587505 -13 49 22.65537
 2018-Sep-08 00:46     01 41 01.480404 -13 49 21.44715
 2018-Sep-08 00:47     01 41 01.373238 -13 49 20.23891
 2018-Sep-08 00:48     01 41 01.266006 -13 49 19.03065
 2018-Sep-08 00:49     01 41 01.158707 -13 49 17.82236
 2018-Sep-08 00:50     01 41 01.051343 -13 49 16.61405
 2018-Sep-08 00:51     01 41 00.943913 -13 49 15.40571
 2018-Sep-08 00:52     01 41 00.836417 -13 49 14.19735
 2018-Sep-08 00:53     01 41 00.728855 -13 49 12.98896
 2018-Sep-08 00:54     01 41 00.621226 -13 49 11.78054
 2018-Sep-08 00:55     01 41 00.513532 -13 49 10.57209
 2018-Sep-08 00:56     01 41 00.405772 -13 49 09.36361
 2018-Sep-08 00:57     01 41 00.297945 -13 49 08.15510
 2018-Sep-08 00:58     01 41 00.190052 -13 49 06.94656
 2018-Sep-08 00:59     01 41 00.082093 -13 49 05.73798
 2018-Sep-08 01:00     01 40 59.974068 -13 49 04.52937
 2018-Sep-08 01:01     01 40 59.865976 -13 49 03.32073
 2018-Sep-08 01:02     01 40 59.757818 -13 49 02.11205
 2018-Sep-08 01:03     01 40 59.649594 -13 49 00.90333
 2018-Sep-08 01:04     01 40 59.541304 -13 48 59.69458
 2018-Sep-08 01:05     01 40 59.432947 -13 48 58.48579
 2018-Sep-08 01:06     01 40 59.324524 -13 48 57.27696
 2018-Sep-08 01:07     01 40 59.216034 -13 48 56.06809
 2018-Sep-08 01:08     01 40 59.107478 -13 48 54.85917
 2018-Sep-08 01:09     01 40 58.998856 -13 48 53.65022
 2018-Sep-08 01:10     01 40 58.890167 -13 48 52.44122
 2018-Sep-08 01:11     01 40 58.781412 -13 48 51.23218
 2018-Sep-08 01:12     01 40 58.672590 -13 48 50.02309
 2018-Sep-08 01:13     01 40 58.563702 -13 48 48.81396
 2018-Sep-08 01:14     01 40 58.454748 -13 48 47.60478
 2018-Sep-08 01:15     01 40 58.345727 -13 48 46.39555
 2018-Sep-08 01:16     01 40 58.236639 -13 48 45.18628
 2018-Sep-08 01:17     01 40 58.127485 -13 48 43.97695
 2018-Sep-08 01:18     01 40 58.018265 -13 48 42.76758
 2018-Sep-08 01:19     01 40 57.908978 -13 48 41.55815
 2018-Sep-08 01:20     01 40 57.799625 -13 48 40.34867
 2018-Sep-08 01:21     01 40 57.690205 -13 48 39.13914
 2018-Sep-08 01:22     01 40 57.580718 -13 48 37.92955
 2018-Sep-08 01:23     01 40 57.471165 -13 48 36.71991
 2018-Sep-08 01:24     01 40 57.361546 -13 48 35.51021
 2018-Sep-08 01:25     01 40 57.251860 -13 48 34.30046
 2018-Sep-08 01:26     01 40 57.142108 -13 48 33.09065
 2018-Sep-08 01:27     01 40 57.032290 -13 48 31.88078
 2018-Sep-08 01:28     01 40 56.922404 -13 48 30.67084
 2018-Sep-08 01:29     01 40 56.812453 -13 48 29.46085
 2018-Sep-08 01:30     01 40 56.702435 -13 48 28.25080
 2018-Sep-08 01:31     01 40 56.592351 -13 48 27.04069
 2018-Sep-08 01:32     01 40 56.482200 -13 48 25.83051
 2018-Sep-08 01:33     01 40 56.371983 -13 48 24.62026
 2018-Sep-08 01:34     01 40 56.261699 -13 48 23.40996
 2018-Sep-08 01:35     01 40 56.151349 -13 48 22.19958
 2018-Sep-08 01:36     01 40 56.040933 -13 48 20.98914
 2018-Sep-08 01:37     01 40 55.930450 -13 48 19.77863
 2018-Sep-08 01:38     01 40 55.819901 -13 48 18.56806
 2018-Sep-08 01:39     01 40 55.709286 -13 48 17.35741
 2018-Sep-08 01:40     01 40 55.598605 -13 48 16.14669
 2018-Sep-08 01:41     01 40 55.487857 -13 48 14.93590
 2018-Sep-08 01:42     01 40 55.377043 -13 48 13.72504
 2018-Sep-08 01:43     01 40 55.266163 -13 48 12.51410
 2018-Sep-08 01:44     01 40 55.155217 -13 48 11.30309
 2018-Sep-08 01:45     01 40 55.044205 -13 48 10.09201
 2018-Sep-08 01:46     01 40 54.933127 -13 48 08.88085
 2018-Sep-08 01:47     01 40 54.821982 -13 48 07.66961
 2018-Sep-08 01:48     01 40 54.710772 -13 48 06.45829
 2018-Sep-08 01:49     01 40 54.599495 -13 48 05.24690
 2018-Sep-08 01:50     01 40 54.488153 -13 48 04.03542
 2018-Sep-08 01:51     01 40 54.376744 -13 48 02.82386
 2018-Sep-08 01:52     01 40 54.265270 -13 48 01.61223
 2018-Sep-08 01:53     01 40 54.153730 -13 48 00.40051
 2018-Sep-08 01:54     01 40 54.042124 -13 47 59.18870
 2018-Sep-08 01:55     01 40 53.930452 -13 47 57.97682
 2018-Sep-08 01:56     01 40 53.818715 -13 47 56.76484
 2018-Sep-08 01:57     01 40 53.706911 -13 47 55.55278
 2018-Sep-08 01:58     01 40 53.595043 -13 47 54.34064
 2018-Sep-08 01:59     01 40 53.483108 -13 47 53.12840
 2018-Sep-08 02:00     01 40 53.371108 -13 47 51.91608
 2018-Sep-08 02:01     01 40 53.259043 -13 47 50.70366
 2018-Sep-08 02:02     01 40 53.146912 -13 47 49.49116
 2018-Sep-08 02:03     01 40 53.034715 -13 47 48.27857
 2018-Sep-08 02:04     01 40 52.922453 -13 47 47.06588
 2018-Sep-08 02:05     01 40 52.810126 -13 47 45.85310
 2018-Sep-08 02:06     01 40 52.697734 -13 47 44.64022
 2018-Sep-08 02:07     01 40 52.585276 -13 47 43.42725
 2018-Sep-08 02:08     01 40 52.472753 -13 47 42.21418
 2018-Sep-08 02:09     01 40 52.360166 -13 47 41.00102
 2018-Sep-08 02:10     01 40 52.247513 -13 47 39.78775
 2018-Sep-08 02:11     01 40 52.134795 -13 47 38.57439
 2018-Sep-08 02:12     01 40 52.022012 -13 47 37.36093
 2018-Sep-08 02:13     01 40 51.909164 -13 47 36.14737
 2018-Sep-08 02:14     01 40 51.796252 -13 47 34.93371
 2018-Sep-08 02:15     01 40 51.683275 -13 47 33.71994
 2018-Sep-08 02:16     01 40 51.570233 -13 47 32.50607
 2018-Sep-08 02:17     01 40 51.457126 -13 47 31.29210
 2018-Sep-08 02:18     01 40 51.343955 -13 47 30.07802
 2018-Sep-08 02:19     01 40 51.230719 -13 47 28.86384
 2018-Sep-08 02:20     01 40 51.117419 -13 47 27.64955
 2018-Sep-08 02:21     01 40 51.004055 -13 47 26.43515
 2018-Sep-08 02:22     01 40 50.890626 -13 47 25.22064
 2018-Sep-08 02:23     01 40 50.777134 -13 47 24.00603
 2018-Sep-08 02:24     01 40 50.663577 -13 47 22.79130
 2018-Sep-08 02:25     01 40 50.549956 -13 47 21.57646
 2018-Sep-08 02:26     01 40 50.436271 -13 47 20.36151
 2018-Sep-08 02:27     01 40 50.322522 -13 47 19.14645
 2018-Sep-08 02:28     01 40 50.208709 -13 47 17.93127
 2018-Sep-08 02:29     01 40 50.094832 -13 47 16.71598
 2018-Sep-08 02:30     01 40 49.980892 -13 47 15.50057
 2018-Sep-08 02:31     01 40 49.866889 -13 47 14.28505
 2018-Sep-08 02:32     01 40 49.752821 -13 47 13.06940
 2018-Sep-08 02:33     01 40 49.638691 -13 47 11.85364
 2018-Sep-08 02:34     01 40 49.524497 -13 47 10.63777
 2018-Sep-08 02:35     01 40 49.410239 -13 47 09.42177
 2018-Sep-08 02:36     01 40 49.295919 -13 47 08.20565
 2018-Sep-08 02:37     01 40 49.181535 -13 47 06.98940
 2018-Sep-08 02:38     01 40 49.067089 -13 47 05.77304
 2018-Sep-08 02:39     01 40 48.952579 -13 47 04.55655
 2018-Sep-08 02:40     01 40 48.838007 -13 47 03.33994
 2018-Sep-08 02:41     01 40 48.723372 -13 47 02.12320
 2018-Sep-08 02:42     01 40 48.608675 -13 47 00.90634
 2018-Sep-08 02:43     01 40 48.493914 -13 46 59.68935
 2018-Sep-08 02:44     01 40 48.379092 -13 46 58.47223
